{
  "type": "FeatureCollection",
  "features": [
    {
      "type": "Feature",
      "properties": {
        "zone_name": "Northern Sector Corridor (Delhi–Rajasthan)",
        "land_type": "Agricultural / Semi-Urban",
        "affected_area_ha": 3450.50
      },
      "geometry": {
        "type": "Polygon",
        "coordinates": [
          [
            [77.15, 28.50],
            [72.82, 26.36],
            [72.55, 26.22],
            [76.89, 28.38],
            [77.15, 28.50]
          ]
        ]
      }
    },
    {
      "type": "Feature",
      "properties": {
        "zone_name": "Central Sector Corridor (Rajasthan–Gujarat)",
        "land_type": "Mixed Agricultural & Industrial",
        "affected_area_ha": 4120.25
      },
      "geometry": {
        "type": "Polygon",
        "coordinates": [
          [
            [72.82, 26.36],
            [73.25, 22.32],
            [72.95, 22.21],
            [72.55, 26.22],
            [72.82, 26.36]
          ]
        ]
      }
    },
    {
      "type": "Feature",
      "properties": {
        "zone_name": "Southern Sector Corridor (Gujarat–Maharashtra)",
        "land_type": "Urban Periphery & Port Logistics",
        "affected_area_ha": 2815.75
      },
      "geometry": {
        "type": "Polygon",
        "coordinates": [
          [
            [73.25, 22.32],
            [73.94, 19.38],
            [73.64, 19.30],
            [72.95, 22.21],
            [73.25, 22.32]
          ]
        ]
      }
    }
  ]
}